FLOCK 3P-62             
1 42036U 17008CS  17324.75176830  .00003808  00000-0  16140-3 0  9999
2 42036  97.4781  25.7322 0008742  38.6055 321.5806 15.23719861 41533
FLOCK 3P-38             
1 42037U 17008CT  17324.89681094  .00001620  00000-0  70836-4 0  9991
2 42037  97.4780  25.8402 0008463  37.2328 322.9494 15.23518381 42332
FLOCK 3P-39             
1 42038U 17008CU  17324.76363506  .00002433  00000-0  10477-3 0  9990
2 42038  97.4774  25.6993 0008715  37.7484 322.4363 15.23541336 42265
FLOCK 3P-15             
1 42039U 17008CV  17324.89986388  .00001586  00000-0  69433-4 0  9999
2 42039  97.4779  25.8351 0008588  36.8939 323.2887 15.23494257 41565
FLOCK 3P-13             
1 42040U 17008CW  17324.76235948  .00004305  00000-0  18301-3 0  9995
2 42040  97.4773  25.7199 0008438  39.3662 320.8187 15.23544870 41535
FLOCK 3P-55             
1 42041U 17008CX  17324.87219383  .00003980  00000-0  16959-3 0  9998
2 42041  97.4779  25.8742 0008356  42.3129 317.8751 15.23516019 42390
FLOCK 3P-56             
1 42042U 17008CY  17324.85142313  .00004299  00000-0  18046-3 0  9998
2 42042  97.4777  25.8899 0008241  41.5266 318.6595 15.23977086 42185
FLOCK 3P-81             
1 42043U 17008CZ  17325.18306628  .00003218  00000-0  13763-3 0  9998
2 42043  97.4802  26.1713 0008585  20.1946 339.9629 15.23531234 41615
FLOCK 3P-87             
1 42044U 17008DA  17324.73242335  .00004321  00000-0  18381-3 0  9990
2 42044  97.4800  25.6867 0008714  18.6633 341.4922 15.23525719 41690
FLOCK 3P-29             
1 42045U 17008DB  17324.79989069  .00005080  00000-0  21565-3 0  9990
2 42045  97.4784  25.6825 0008316  15.9283 344.2214 15.23508933 41554
FLOCK 3P-82             
1 42046U 17008DC  17324.86423045  .00004023  00000-0  17065-3 0  9992
2 42046  97.4800  25.8241 0008660  19.0314 341.1245 15.23660303 41617
FLOCK 3P-78             
1 42047U 17008DD  17325.19181202  .00003408  00000-0  14565-3 0  9994
2 42047  97.4801  26.1558 0008551  17.2799 342.8727 15.23518114 41592
FLOCK 3P-74             
1 42048U 17008DE  17324.93751747  .00003473  00000-0  14839-3 0  9999
2 42048  97.4806  25.8921 0008961  18.1796 341.9759 15.23506050 41557
FLOCK 3P-31             
1 42049U 17008DF  17324.74244692  .00004678  00000-0  19895-3 0  9990
2 42049  97.4781  25.6083 0008399  17.6213 342.5313 15.23485653 40984
FLOCK 3P-83             
1 42050U 17008DG  17324.80876547  .00002893  00000-0  12420-3 0  9993
2 42050  97.4801  25.7451 0008890  19.6402 340.5175 15.23492430 42265
FLOCK 3P-72             
1 42051U 17008DH  17324.72203687  .00001747  00000-0  76160-4 0  9993
2 42051  97.4809  25.7249 0008360  19.5235 340.6321 15.23512521 39842
LEMUR-2-REDFERN-GOES    
1 42059U 98067LA  17325.20217390  .00024422  00000-0  25168-3 0  9991
2 42059  51.6375 325.9939 0005778 145.8596 214.2771 15.64667265 40538
LEMUR-2-TRUTNA          
1 42067U 98067LC  17324.90290111  .00056088  00000-0  39474-3 0  9996
2 42067  51.6360 321.7096 0004454 113.7677 246.3790 15.73541240 40398
LEMUR-2-AUSTINTACIOUS   
1 42068U 98067LD  17324.90499383  .00025738  00000-0  24648-3 0  9994
2 42068  51.6376 326.2597 0005494 133.4735 226.6718 15.66481829 40435
LEMUR-2-TRUTNAHD        
1 42069U 98067LE  17324.90420795  .00025079  00000-0  25169-3 0  9993
2 42069  51.6385 327.0237 0005161 140.2735 219.8639 15.65324101 40471
HAVELSAT                
1 42700U 98067LH  17325.20036672  .00020391  00000-0  23625-3 0  9993
2 42700  51.6389 330.4957 0003984 174.5481 185.5557 15.61789918 29420
SOMP 2                  
1 42701U 98067LJ  17325.16554732  .00021851  00000-0  25730-3 0  9992
2 42701  51.6385 331.0145 0004018 174.6378 185.4659 15.61319138 29401
COLUMBIA                
1 42702U 98067LK  17325.20994209  .00082452  00000-0  62473-3 0  9994
2 42702  51.6355 326.0293 0003542 107.3552 252.7833 15.71651076 29408
SGSAT                   
1 42703U 98067LL  17325.16929066  .00052586  00000-0  47700-3 0  9990
2 42703  51.6356 328.0106 0003936  74.9750 285.1682 15.67478106 29364
CXBN-2                  
1 42704U 98067LM  17325.04187673  .00020488  00000-0  24097-3 0  9998
2 42704  51.6391 331.6913 0002639  89.6361 270.4936 15.61398784 29311
ICECUBE                 
1 42705U 98067LN  17325.22254043  .00033257  00000-0  35824-3 0  9993
2 42705  51.6416 329.9193 0002991  97.0570 263.0765 15.63375303 29419
PHOENIX                 
1 42706U 98067LP  17325.21665183  .00018019  00000-0  21244-3 0  9994
2 42706  51.6387 330.6077 0001645  88.8067 271.3115 15.61434812 29332
X-CUBESAT               
1 42707U 98067LQ  17325.20983254  .00021783  00000-0  25229-3 0  9995
2 42707  51.6372 330.5500 0001779  87.0110 273.1087 15.61757353 29320
QBEE50-LTU-OC           
1 42708U 98067LR  17325.21884409  .00021157  00000-0  24723-3 0  9992
2 42708  51.6379 330.6118 0001770  87.5326 272.5871 15.61545664 29288
ALTAIR PATHFINDER       
1 42711U 98067LS  17325.22626461  .00013182  00000-0  17135-3 0  9997
2 42711  51.6386 332.1634 0004541 108.8210 251.3275 15.59137863 28971
SHARC                   
1 42712U 98067LT  17325.18212265  .00011405  00000-0  15290-3 0  9992
2 42712  51.6401 332.6337 0002721 109.6105 250.5181 15.58476924 29202
ZA-AEROSAT              
1 42713U 98067LU  17325.22200324  .00019150  00000-0  23444-3 0  9996
2 42713  51.6385 331.3903 0002998  89.2920 270.8416 15.60397797 28986
LINK                    
1 42714U 98067LV  17325.18100535  .00030327  00000-0  32960-3 0  9997
2 42714  51.6367 330.3519 0003413  81.0561 279.0819 15.63194458 29108
CSUNSAT 1               
1 42715U 98067LW  17325.22079076  .00018390  00000-0  22370-3 0  9998
2 42715  51.6391 331.3801 0004861  97.1282 263.0264 15.60592012 28984
UPSAT                   
1 42716U 98067LX  17325.17433083  .00026706  00000-0  29640-3 0  9992
2 42716  51.6384 330.3212 0002281 162.9922 197.1149 15.62730416 29128
SPACECUBE               
1 42717U 98067LY  17325.17084564  .00022167  00000-0  25981-3 0  9990
2 42717  51.6383 331.0465 0002517 168.5696 191.5356 15.61434234 28358
HOOPOE                  
1 42718U 98067LZ  17325.20412737  .00022097  00000-0  25233-3 0  9994
2 42718  51.6383 330.5190 0002407 162.1648 197.9430 15.62114640 28364
CHALLENGER              
1 42721U 98067MA  17325.20671444  .00035622  00000-0  36982-3 0  9991
2 42721  51.6369 329.7707 0004879 145.6864 214.4447 15.64273187 28072
NJUST-1                 
1 42722U 98067MB  17325.19234629  .00015660  00000-0  19549-3 0  9990
2 42722  51.6388 331.9392 0005867 160.7650 199.3566 15.60039893 28048
UNSW-ECO                
1 42723U 98067MC  17325.17433349  .00025235  00000-0  28800-3 0  9998
2 42723  51.6391 331.0738 0005175 153.0038 207.1226 15.62033495 28039
DUTHSAT                 
1 42724U 98067MD  17325.22930006  .00034589  00000-0  36500-3 0  9995
2 42724  51.6379 329.9336 0004093 145.4298 214.6964 15.63876649 27978
LILACSAT-1              
1 42725U 98067ME  17325.17470102  .00019966  00000-0  24125-3 0  9998
2 42725  51.6388 331.8239 0004688 158.1567 201.9627 15.60706033 27941
NSIGHT-1                
1 42726U 98067MF  17325.22304712  .00009383  00000-0  12900-3 0  9998
2 42726  51.6398 332.9041 0005518 167.4651 192.6480 15.58044564 27940
SNUSAT-1                
1 42727U 98067MG  17324.59866440  .00020631  00000-0  25036-3 0  9992
2 42727  51.6374 334.7118 0007227 120.5095 239.6613 15.60553577 27820
QBITO                   
1 42728U 98067MH  17325.20036854  .00021405  00000-0  25223-3 0  9998
2 42728  51.6403 331.2601 0002237 147.2124 212.9009 15.61318713 27766
AALTO-2                 
1 42729U 98067MJ  17324.55911431  .00021509  00000-0  25323-3 0  9995
2 42729  51.6389 334.4662 0002152 143.5044 216.6096 15.61338658 27675
SUSAT                   
1 42730U 98067MK  17325.21486259  .00020727  00000-0  24720-3 0  9997
2 42730  51.6385 331.3405 0002398 145.5506 214.5643 15.61026888 27765
I-INSPIRE II            
1 42731U 98067ML  17325.15985836  .00024254  00000-0  27471-3 0  9991
2 42731  51.6374 330.9571 0006956 105.8243 254.3519 15.62243849 27813
POLYITAN-2-SAU          
1 42732U 98067MM  17325.19079931  .00022132  00000-0  25843-3 0  9990
2 42732  51.6381 331.1673 0006975 107.1376 253.0382 15.61513370 27813
SNUSAT-1B               
1 42733U 98067MN  17325.21523568  .00020498  00000-0  24465-3 0  9996
2 42733  51.6384 331.3342 0006993 110.2978 249.8768 15.60995280 27819
EXALTA-1                
1 42734U 98067MP  17325.22914214  .00027541  00000-0  31140-3 0  9994
2 42734  51.6374 330.6724 0007405 131.1140 229.0494 15.62207525 27778
AOXIANG-1               
1 42735U 98067MQ  17325.18520209  .00016120  00000-0  20004-3 0  9995
2 42735  51.6381 331.8859 0006454 158.0051 202.1221 15.60167505 29178
BEEAGLESAT              
1 42736U 98067MR  17325.16976183  .00018717  00000-0  22744-3 0  9997
2 42736  51.6379 331.7822 0006261 155.2674 204.8620 15.60597946 27863
ATLANTIS                
1 42737U 98067MS  17324.58164983  .00059252  00000-0  49944-3 0  9990
2 42737  51.6346 330.8245 0005111 117.6764 242.4752 15.69218068 27714
LEMUR-2-ANGELA          
1 42752U 17019B   17324.59186167  .00002741  00000-0  11075-3 0  9999
2 42752  51.6430  10.9235 0010489 179.2894 180.8102 15.28266814 25205
LEMUR-2-JENNYBARNA      
1 42753U 17019C   17324.57680539  .00002765  00000-0  11061-3 0  9991
2 42753  51.6417  10.8285 0010257 178.8015 181.2991 15.28568557 25141
LEMUR-2-ROBMOORE        
1 42754U 17019D   17324.59978172  .00003410  00000-0  13494-3 0  9997
2 42754  51.6426  10.9725 0010537 182.1468 177.9468 15.28188105 25185
LEMUR-2-SPIROVISION     
1 42755U 17019E   17324.58705245  .00003261  00000-0  12849-3 0  9993
2 42755  51.6423  10.8889 0010288 181.8676 178.2267 15.28480015 25077
UCLSAT                  
1 42765U 17036A   17324.86893743  .00001645  00000-0  76607-4 0  9992
2 42765  97.4310  22.7920 0013691  87.5617 272.7186 15.21252546 23625
